JILIN GAOFEN OBJECT H
1 68698U 26080H   26104.54390103  .00001585  00000+0  10262-3 0  9993
2 68698  97.6668 180.1864 0014540 287.1597  72.8040 15.09557061    24
