{
  "norad_id": 68698,
  "name": "JILIN GAOFEN OBJECT H",
  "history": [
    {
      "epoch": "2026-04-14T13:03:13.048992Z",
      "apogee_km": 547.6079005140655,
      "perigee_km": 527.4970754829656,
      "latitude_deg": 5.842465333456654e-05,
      "longitude_deg": 141.66321522251508,
      "height_km": 537.6609578524849,
      "semi_major_axis_km": 6915.689487998515,
      "eccentricity": 0.001454,
      "inclination_deg": 97.6668,
      "raan_deg": 180.1864,
      "arg_perigee_deg": 287.1597,
      "mean_anomaly_deg": 72.804,
      "mean_motion_rev_day": 15.09557061
    }
  ]
}